{"c":20,"result":[{"p":[{"zsr":"K104063","fN":"Luca","n":"Di Fiore","p":"+41 21 647 96 73","m":"+41 76 220 73 84","e":"info@physiodifiore.ch","w":"www.physiodifiore.ch","me":["141"],"a":{"str":"route de Lausanne","hNo":"128","zip":"1052","c":"Le Mont-sur-Lausanne","ct":"CH"}}],"l":{"lat":46.5419378,"lng":6.6326455},"c":1,"id":"6_63265_46_5419"},{"p":[{"zsr":"O347560","fN":"Ilaria","n":"Luca","m":"+41 76 569 64 86","e":"ilarialuca1@gmail.com","me":["38","131","145","218","219","220","221"],"a":{"str":"rue des Lavannes","hNo":"10","zip":"2072","c":"St-Blaise","ct":"CH"}}],"l":{"lat":47.0138733,"lng":6.9841603},"c":1,"id":"6_98416_47_0139"},{"p":[{"zsr":"E058462","fN":"Luca","n":"Bernetti","p":"+41 32 751 51 71","m":"+41 79 257 46 40","f":"+41 32 751 51 71","e":"lucaber@bluewin.ch","me":["5","9","64","108","124","136","141","170","185"],"a":{"str":"rue de Soleure","hNo":"14","zip":"2525","c":"Le Landeron","ct":"CH"}}],"l":{"lat":47.0556063,"lng":7.067920099999999},"c":1,"id":"7_06792_47_0556"},{"p":[{"zsr":"J001662","fN":"Luca","n":"Hänseler","me":["35","67","82","95","103","112","205"],"a":{"str":"Bielstrasse","hNo":"14","zip":"3250","c":"Lyss","ct":"CH"}}],"l":{"lat":47.0754903,"lng":7.305555499999999},"c":1,"id":"7_30556_47_0755"},{"p":[{"zsr":"O094662","fN":"Luca","n":"Burberi","p":"+41 91 857 35 36","m":"+41 79 880 63 65","e":"luca.naturopata@gmail.com","w":"www.lucaburberi.com","me":["91"],"a":{"str":"via Cantonale - Residenza","hNo":"51","zip":"6528","c":"Camorino","ct":"CH"}}],"l":{"lat":46.1669686,"lng":9.0012457},"c":1,"id":"9_00125_46_167"},{"p":[{"zsr":"P060060","fN":"Luca","n":"Broggini","p":"+41 91 829 00 14","m":"+41 79 230 85 03","f":"+41 91 829 00 14","e":"fisiotimedilucabroggini@bluemail.ch","me":["5","64","124","136","170","185"],"a":{"str":"via Selva","hNo":"19","zip":"6533","c":"Lumino","ct":"CH"}}],"l":{"lat":46.2313753,"lng":9.066428499999999},"c":1,"id":"9_06643_46_2314"},{"p":[{"zsr":"N909561","fN":"Gianluca","n":"Schnoz","p":"+41 91 858 21 01","e":"massmedico@gmail.com","me":["67","82","95","103","112"],"a":{"str":"via Luserte","hNo":"2","zip":"6572","c":"Quartino","ct":"CH"}}],"l":{"lat":46.1522337,"lng":8.912044},"c":1,"id":"8_91204_46_1522"},{"p":[{"zsr":"W907261","fN":"Luca","n":"Salmina","p":"+41 91 745 60 01","m":"+41 78 716 61 33","f":"+41 91 745 60 02","e":"luca_salmina@yahoo.com","w":"www.fisiotenero.ch","me":["5","64","124","170","185"],"a":{"str":"via Gerbione","hNo":"6a","zip":"6598","c":"Tenero","ct":"CH"}}],"l":{"lat":46.1792551,"lng":8.8512649},"c":1,"id":"8_85126_46_1793"},{"p":[{"zsr":"O213060","fN":"Luca","n":"Vogini","p":"+41 91 871 12 61","m":"+41 79 375 75 59","e":"lvogini@yahoo.com","me":["5","146","185"],"a":{"zip":"6715","c":"Dongio","ct":"CH"}}],"l":{"lat":46.44027759999999,"lng":8.959285399999999},"c":1,"id":"8_95929_46_4403"},{"p":[{"zsr":"R026763","fN":"Luca","n":"Henriques","m":"+41 76 246 60 33","e":"henriques.luca@hotmail.com","me":["35","67","82","95","103","112","205"],"a":{"str":"via Pignarénch","hNo":"13","zip":"6743","c":"Bodio TI","ct":"CH"}}],"l":{"lat":46.3787898,"lng":8.9130745},"c":1,"id":"8_91307_46_3788"},{"p":[{"zsr":"H038960","fN":"Luca","n":"Bontà","p":"+41 91 646 76 07","f":"+41 91 646 76 14","e":"lbonta@bluewin.ch","me":["5","64","108","124","136","170","185"],"a":{"str":"via Giuseppe Lanz","hNo":"22","zip":"6850","c":"Mendrisio","ct":"CH"}}],"l":{"lat":45.8734966,"lng":8.9855512},"c":1,"id":"8_98555_45_8735"},{"p":[{"zsr":"V020060","fN":"Luca","n":"Bellofatto","p":"+41 91 923 52 53","f":"+41 91 923 52 54","e":"info@mandhara-day-spa.ch","w":"www.mandhara-day-spa.ch","me":["35","67","82","95","103","112","205"],"a":{"str":"Quartier Maghetti","hNo":"20","zip":"6900","c":"Lugano","ct":"CH"}}],"l":{"lat":46.0045693,"lng":8.9533694},"c":1,"id":"8_95337_46_0046"},{"p":[{"zsr":"L950861","fN":"Luca","n":"Orabona","m":"+41 79 132 75 99","e":"sig.lucaorabona@gmail.com","me":["5","64","124","141","170","185"],"a":{"str":"Viale Stefano Franscini","hNo":"20","zip":"6900","c":"Lugano","ct":"CH"}}],"l":{"lat":46.0098907,"lng":8.9541252},"c":1,"id":"8_95413_46_0099"},{"p":[{"zsr":"M086560","fN":"Luca","n":"Corti","m":"+41 77 431 88 20","e":"cortilu1973@gmail.com","me":["67","95","103"],"a":{"str":"via Cantonale","hNo":"32","zip":"6929","c":"Gravesano","ct":"CH"}}],"l":{"lat":46.0424858,"lng":8.917597899999999},"c":1,"id":"8_9176_46_0425"},{"p":[{"zsr":"P941161","fN":"Luca","n":"Melera","p":"+41 91 850 95 95","e":"meleraluca@gmail.com","me":["35","67","82","95","103","112","205"],"a":{"str":"piazza G. Piattini","hNo":"11","zip":"6932","c":"Breganzona","ct":"CH"}}],"l":{"lat":46.0021478,"lng":8.9247433},"c":1,"id":"8_92474_46_0021"},{"p":[{"zsr":"M467762","fN":"Alfredo Lucas","n":"Takuo Iida","m":"+41 79 684 90 03","e":"altakuo@hotmail.com","me":["3"],"a":{"str":"Guthirtstrasse","hNo":"11","zip":"8037","c":"Zürich","ct":"CH"}}],"l":{"lat":47.3950426,"lng":8.527889499999999},"c":1,"id":"8_52789_47_395"},{"p":[{"zsr":"E387362","fN":"Gianluca","n":"Placi","me":["35","67","82","95","103","112","205"],"a":{"str":"Glattwiesenstrasse","hNo":"213","zip":"8051","c":"Zürich","ct":"CH"}}],"l":{"lat":47.4052432,"lng":8.580976999999999},"c":1,"id":"8_58098_47_4052"},{"p":[{"zsr":"Z848660","fN":"Pietro","n":"Luca","m":"+41 76 398 80 74","e":"pietro.luca@gmx.ch","me":["9","124","170","185"],"a":{"str":"Gerichtsstrasse","hNo":"1","zip":"8610","c":"Uster","ct":"CH"}}],"l":{"lat":47.3496567,"lng":8.717223599999999},"c":1,"id":"8_71722_47_3497"},{"p":[{"zsr":"R742462","fN":"Luca","n":"Giammarino","me":["5","146","185"],"a":{"str":"Laubholzstrasse","hNo":"76","zip":"8703","c":"Erlenbach ZH","ct":"CH"}}],"l":{"lat":47.29589600000001,"lng":8.603521599999999},"c":1,"id":"8_60352_47_2959"},{"p":[{"zsr":"K742261","fN":"Lucas","n":"Rüesch","p":"+41 71 278 22 46","m":"+41 79 480 22 89","e":"lucas_rueesch@hotmail.com","me":["35","67","82","95","103","112","205"],"a":{"str":"Wolfgangweg","hNo":"11","zip":"9014","c":"St. Gallen","ct":"CH"}}],"l":{"lat":47.40155439999999,"lng":9.3376605},"c":1,"id":"9_33766_47_4016"}]}
